ASTROCAST-0403          
1 55111U 23001DG  26068.82333059  .00013959  00000+0  51317-3 0  9990
2 55111  97.5604 161.3228 0004771 338.0704  22.0330 15.28004949129377
STARLINK-31615          
1 59413U 24064R   26067.24197755  .00001792  00000+0  74625-4 0  9995
2 59413  43.0017  57.4665 0001108 254.6270 105.4459 15.27584219109088
